[{"OBJECT_NAME":"CHECKMATE 4","OBJECT_ID":"2023-050C","EPOCH":"2026-03-09T17:33:56.570400","MEAN_MOTION":13.84801132,"ECCENTRICITY":0.00051188,"INCLINATION":81.0045,"RA_OF_ASC_NODE":167.2035,"ARG_OF_PERICENTER":230.7826,"MEAN_ANOMALY":129.2876,"EPHEMERIS_TYPE":0,"CLASSIFICATION_TYPE":"U","NORAD_CAT_ID":56164,"ELEMENT_SET_NO":999,"REV_AT_EPOCH":14837,"BSTAR":9.4449728e-5,"MEAN_MOTION_DOT":1.17e-6,"MEAN_MOTION_DDOT":0},{"OBJECT_NAME":"WILDFIRE 8","OBJECT_ID":"2023-133M","EPOCH":"2026-03-09T12:22:22.023552","MEAN_MOTION":13.85412559,"ECCENTRICITY":0.00047302,"INCLINATION":80.9917,"RA_OF_ASC_NODE":102.7075,"ARG_OF_PERICENTER":283.6827,"MEAN_ANOMALY":76.3802,"EPHEMERIS_TYPE":0,"CLASSIFICATION_TYPE":"U","NORAD_CAT_ID":57768,"ELEMENT_SET_NO":999,"REV_AT_EPOCH":12723,"BSTAR":-0.00014989994,"MEAN_MOTION_DOT":-1.6e-6,"MEAN_MOTION_DDOT":0}]
