CHECKMATE 4             
1 56164U 23050C   26068.73190475  .00000117  00000+0  94450-4 0  9994
2 56164  81.0045 167.2035 0005119 230.7826 129.2876 13.84801132148379
WILDFIRE 8              
1 57768U 23133M   26068.51553268 -.00000160  00000+0 -14990-3 0  9996
2 57768  80.9917 102.7075 0004730 283.6827  76.3802 13.85412559127235
